[{"OBJECT_NAME":"STARLINK-36868","OBJECT_ID":"2026-044V","EPOCH":"2026-04-02T20:00:01.999008","MEAN_MOTION":15.58314229,"ECCENTRICITY":0.0001863,"INCLINATION":97.2851,"RA_OF_ASC_NODE":54.1423,"ARG_OF_PERICENTER":89.9084,"MEAN_ANOMALY":118.9903,"EPHEMERIS_TYPE":0,"CLASSIFICATION_TYPE":"U","NORAD_CAT_ID":68120,"ELEMENT_SET_NO":999,"REV_AT_EPOCH":523,"BSTAR":-0.028035,"MEAN_MOTION_DOT":-0.01879104,"MEAN_MOTION_DDOT":0},{"OBJECT_NAME":"STARLINK-36855","OBJECT_ID":"2026-044W","EPOCH":"2026-04-02T20:00:01.999008","MEAN_MOTION":15.56869477,"ECCENTRICITY":0.0001911,"INCLINATION":97.2855,"RA_OF_ASC_NODE":54.135,"ARG_OF_PERICENTER":96.1363,"MEAN_ANOMALY":95.0775,"EPHEMERIS_TYPE":0,"CLASSIFICATION_TYPE":"U","NORAD_CAT_ID":68121,"ELEMENT_SET_NO":999,"REV_AT_EPOCH":523,"BSTAR":-0.02955,"MEAN_MOTION_DOT":-0.01876263,"MEAN_MOTION_DDOT":0},{"OBJECT_NAME":"STARLINK-36366","OBJECT_ID":"2026-044X","EPOCH":"2026-04-02T20:00:01.999008","MEAN_MOTION":15.57176118,"ECCENTRICITY":0.0001934,"INCLINATION":97.2855,"RA_OF_ASC_NODE":54.1378,"ARG_OF_PERICENTER":95.2436,"MEAN_ANOMALY":102.7103,"EPHEMERIS_TYPE":0,"CLASSIFICATION_TYPE":"U","NORAD_CAT_ID":68122,"ELEMENT_SET_NO":999,"REV_AT_EPOCH":528,"BSTAR":-0.029226,"MEAN_MOTION_DOT":-0.01877048,"MEAN_MOTION_DDOT":0},{"OBJECT_NAME":"STARLINK-36922","OBJECT_ID":"2026-044Y","EPOCH":"2026-04-02T20:00:01.999008","MEAN_MOTION":15.57686613,"ECCENTRICITY":0.000189,"INCLINATION":97.2852,"RA_OF_ASC_NODE":54.1474,"ARG_OF_PERICENTER":91.361,"MEAN_ANOMALY":128.2679,"EPHEMERIS_TYPE":0,"CLASSIFICATION_TYPE":"U","NORAD_CAT_ID":68123,"ELEMENT_SET_NO":999,"REV_AT_EPOCH":528,"BSTAR":-0.02881,"MEAN_MOTION_DOT":-0.01885115,"MEAN_MOTION_DDOT":0},{"OBJECT_NAME":"STARLINK-36938","OBJECT_ID":"2026-044Z","EPOCH":"2026-04-02T21:03:37.370304","MEAN_MOTION":15.75297394,"ECCENTRICITY":0.0001444,"INCLINATION":97.2863,"RA_OF_ASC_NODE":54.3006,"ARG_OF_PERICENTER":122.8979,"MEAN_ANOMALY":237.2425,"EPHEMERIS_TYPE":0,"CLASSIFICATION_TYPE":"U","NORAD_CAT_ID":68124,"ELEMENT_SET_NO":999,"REV_AT_EPOCH":529,"BSTAR":0.0027245,"MEAN_MOTION_DOT":0.00429364,"MEAN_MOTION_DDOT":0},{"OBJECT_NAME":"STARLINK-36839","OBJECT_ID":"2026-044AA","EPOCH":"2026-04-02T20:00:01.999008","MEAN_MOTION":15.57725613,"ECCENTRICITY":0.0001987,"INCLINATION":97.2853,"RA_OF_ASC_NODE":54.1448,"ARG_OF_PERICENTER":95.5091,"MEAN_ANOMALY":118.7188,"EPHEMERIS_TYPE":0,"CLASSIFICATION_TYPE":"U","NORAD_CAT_ID":68125,"ELEMENT_SET_NO":999,"REV_AT_EPOCH":523,"BSTAR":-0.028717,"MEAN_MOTION_DOT":-0.01882225,"MEAN_MOTION_DDOT":0},{"OBJECT_NAME":"ECHOSTAR 25","OBJECT_ID":"2026-045A","EPOCH":"2026-04-02T14:22:28.608672","MEAN_MOTION":1.00269535,"ECCENTRICITY":0.0001483,"INCLINATION":0.0406,"RA_OF_ASC_NODE":280.1005,"ARG_OF_PERICENTER":152.2607,"MEAN_ANOMALY":205.3502,"EPHEMERIS_TYPE":0,"CLASSIFICATION_TYPE":"U","NORAD_CAT_ID":68126,"ELEMENT_SET_NO":999,"REV_AT_EPOCH":23,"BSTAR":0,"MEAN_MOTION_DOT":5.3e-7,"MEAN_MOTION_DDOT":0},{"OBJECT_NAME":"ICOR SV","OBJECT_ID":"2026-046A","EPOCH":"2026-04-02T12:34:31.594656","MEAN_MOTION":15.98678376,"ECCENTRICITY":0.00923361,"INCLINATION":123.0727,"RA_OF_ASC_NODE":314.8636,"ARG_OF_PERICENTER":232.1041,"MEAN_ANOMALY":127.1659,"EPHEMERIS_TYPE":0,"CLASSIFICATION_TYPE":"U","NORAD_CAT_ID":68127,"ELEMENT_SET_NO":999,"REV_AT_EPOCH":339,"BSTAR":0.00067829922,"MEAN_MOTION_DOT":0.00534824,"MEAN_MOTION_DDOT":1.2232493e-5},{"OBJECT_NAME":"FIREFLY ALPHA R/B","OBJECT_ID":"2026-046B","EPOCH":"2026-04-02T12:34:47.946720","MEAN_MOTION":15.57674817,"ECCENTRICITY":0.00170181,"INCLINATION":123.0926,"RA_OF_ASC_NODE":310.1729,"ARG_OF_PERICENTER":26.9184,"MEAN_ANOMALY":333.2756,"EPHEMERIS_TYPE":0,"CLASSIFICATION_TYPE":"U","NORAD_CAT_ID":68128,"ELEMENT_SET_NO":999,"REV_AT_EPOCH":335,"BSTAR":0.00063988028,"MEAN_MOTION_DOT":0.00048286,"MEAN_MOTION_DDOT":0},{"OBJECT_NAME":"GUOWANG GROUP 20 OBJECT A","OBJECT_ID":"2026-047A","EPOCH":"2026-04-02T17:28:37.836480","MEAN_MOTION":13.85294462,"ECCENTRICITY":5.96e-5,"INCLINATION":50.005,"RA_OF_ASC_NODE":333.25,"ARG_OF_PERICENTER":153.6332,"MEAN_ANOMALY":206.4595,"EPHEMERIS_TYPE":0,"CLASSIFICATION_TYPE":"U","NORAD_CAT_ID":68129,"ELEMENT_SET_NO":999,"REV_AT_EPOCH":293,"BSTAR":5.0251e-5,"MEAN_MOTION_DOT":-8.7e-7,"MEAN_MOTION_DDOT":0},{"OBJECT_NAME":"GUOWANG GROUP 20 OBJECT B","OBJECT_ID":"2026-047B","EPOCH":"2026-04-01T05:04:40.456704","MEAN_MOTION":13.87767313,"ECCENTRICITY":1.339e-5,"INCLINATION":50.0054,"RA_OF_ASC_NODE":339.2252,"ARG_OF_PERICENTER":185.6237,"MEAN_ANOMALY":174.4659,"EPHEMERIS_TYPE":0,"CLASSIFICATION_TYPE":"U","NORAD_CAT_ID":68130,"ELEMENT_SET_NO":999,"REV_AT_EPOCH":271,"BSTAR":6.9791497e-5,"MEAN_MOTION_DOT":-6.2e-7,"MEAN_MOTION_DDOT":0},{"OBJECT_NAME":"GUOWANG GROUP 20 OBJECT C","OBJECT_ID":"2026-047C","EPOCH":"2026-04-02T12:08:18.567744","MEAN_MOTION":13.863205,"ECCENTRICITY":6.698e-5,"INCLINATION":50.0019,"RA_OF_ASC_NODE":334.0677,"ARG_OF_PERICENTER":236.5521,"MEAN_ANOMALY":123.5312,"EPHEMERIS_TYPE":0,"CLASSIFICATION_TYPE":"U","NORAD_CAT_ID":68131,"ELEMENT_SET_NO":999,"REV_AT_EPOCH":290,"BSTAR":4.2135642e-5,"MEAN_MOTION_DOT":-9.6e-7,"MEAN_MOTION_DDOT":0},{"OBJECT_NAME":"GUOWANG GROUP 20 OBJECT D","OBJECT_ID":"2026-047D","EPOCH":"2026-04-02T13:48:14.018400","MEAN_MOTION":13.8659404,"ECCENTRICITY":7.103e-5,"INCLINATION":50.0067,"RA_OF_ASC_NODE":333.7806,"ARG_OF_PERICENTER":245.036,"MEAN_ANOMALY":115.0463,"EPHEMERIS_TYPE":0,"CLASSIFICATION_TYPE":"U","NORAD_CAT_ID":68132,"ELEMENT_SET_NO":999,"REV_AT_EPOCH":290,"BSTAR":5.1916391e-5,"MEAN_MOTION_DOT":-8.4e-7,"MEAN_MOTION_DDOT":0},{"OBJECT_NAME":"GUOWANG GROUP 20 OBJECT E","OBJECT_ID":"2026-047E","EPOCH":"2026-04-02T17:11:29.000832","MEAN_MOTION":13.86278934,"ECCENTRICITY":6.4e-5,"INCLINATION":50.0032,"RA_OF_ASC_NODE":333.1791,"ARG_OF_PERICENTER":212.532,"MEAN_ANOMALY":147.5538,"EPHEMERIS_TYPE":0,"CLASSIFICATION_TYPE":"U","NORAD_CAT_ID":68133,"ELEMENT_SET_NO":999,"REV_AT_EPOCH":293,"BSTAR":3.5303e-5,"MEAN_MOTION_DOT":-1.04e-6,"MEAN_MOTION_DDOT":0},{"OBJECT_NAME":"GUOWANG GROUP 20 OBJECT F","OBJECT_ID":"2026-047F","EPOCH":"2026-04-02T13:36:24.060096","MEAN_MOTION":13.8719072,"ECCENTRICITY":6.29e-5,"INCLINATION":50.0093,"RA_OF_ASC_NODE":333.7419,"ARG_OF_PERICENTER":256.4099,"MEAN_ANOMALY":103.6728,"EPHEMERIS_TYPE":0,"CLASSIFICATION_TYPE":"U","NORAD_CAT_ID":68134,"ELEMENT_SET_NO":999,"REV_AT_EPOCH":290,"BSTAR":9.5092278e-5,"MEAN_MOTION_DOT":-3.3e-7,"MEAN_MOTION_DDOT":0},{"OBJECT_NAME":"GUOWANG GROUP 20 OBJECT G","OBJECT_ID":"2026-047G","EPOCH":"2026-04-02T13:40:04.450944","MEAN_MOTION":13.87026021,"ECCENTRICITY":9.279e-5,"INCLINATION":50.0112,"RA_OF_ASC_NODE":333.7611,"ARG_OF_PERICENTER":224.2337,"MEAN_ANOMALY":135.8486,"EPHEMERIS_TYPE":0,"CLASSIFICATION_TYPE":"U","NORAD_CAT_ID":68135,"ELEMENT_SET_NO":999,"REV_AT_EPOCH":291,"BSTAR":0.00013110379,"MEAN_MOTION_DOT":9.0e-8,"MEAN_MOTION_DDOT":0}]
