STARLINK-36868          
1 68120U 26044V   26092.83335647 -.01879104  00000+0 -28035-1 0  9991
2 68120  97.2851  54.1423 0001863  89.9084 118.9903 15.58314229  5237
STARLINK-36855          
1 68121U 26044W   26092.83335647 -.01876263  00000+0 -29550-1 0  9998
2 68121  97.2855  54.1350 0001911  96.1363  95.0775 15.56869477  5235
STARLINK-36366          
1 68122U 26044X   26092.83335647 -.01877048  00000+0 -29226-1 0  9991
2 68122  97.2855  54.1378 0001934  95.2436 102.7103 15.57176118  5282
STARLINK-36922          
1 68123U 26044Y   26092.83335647 -.01885115  00000+0 -28810-1 0  9994
2 68123  97.2852  54.1474 0001890  91.3610 128.2679 15.57686613  5286
STARLINK-36938          
1 68124U 26044Z   26092.87751586  .00429364  00000+0  27245-2 0  9992
2 68124  97.2863  54.3006 0001444 122.8979 237.2425 15.75297394  5290
STARLINK-36839          
1 68125U 26044AA  26092.83335647 -.01882225  00000+0 -28717-1 0  9991
2 68125  97.2853  54.1448 0001987  95.5091 118.7188 15.57725613  5234
ECHOSTAR 25             
1 68126U 26045A   26092.59894223  .00000053  00000+0  00000+0 0  9997
2 68126   0.0406 280.1005 0001483 152.2607 205.3502  1.00269535   233
ICOR SV                 
1 68127U 26046A   26092.52397679  .00534824  12232-4  67830-3 0  9996
2 68127 123.0727 314.8636 0092336 232.1041 127.1659 15.98678376  3391
FIREFLY ALPHA R/B       
1 68128U 26046B   26092.52416605  .00048286  00000+0  63988-3 0  9995
2 68128 123.0926 310.1729 0017018  26.9184 333.2756 15.57674817  3351
GUOWANG GROUP 20 OBJECT*
1 68129U 26047A   26092.72821570 -.00000087  00000+0  50251-4 0  9998
2 68129  50.0050 333.2500 0000596 153.6332 206.4595 13.85294462  2936
GUOWANG GROUP 20 OBJECT*
1 68130U 26047B   26091.21157936 -.00000062  00000+0  69791-4 0  9993
2 68130  50.0054 339.2252 0000133 185.6237 174.4659 13.87767313  2711
GUOWANG GROUP 20 OBJECT*
1 68131U 26047C   26092.50577046 -.00000096  00000+0  42136-4 0  9996
2 68131  50.0019 334.0677 0000669 236.5521 123.5312 13.86320500  2907
GUOWANG GROUP 20 OBJECT*
1 68132U 26047D   26092.57516225 -.00000084  00000+0  51916-4 0  9999
2 68132  50.0067 333.7806 0000710 245.0360 115.0463 13.86594040  2909
GUOWANG GROUP 20 OBJECT*
1 68133U 26047E   26092.71630788 -.00000104  00000+0  35303-4 0  9992
2 68133  50.0032 333.1791 0000640 212.5320 147.5538 13.86278934  2933
GUOWANG GROUP 20 OBJECT*
1 68134U 26047F   26092.56694514 -.00000033  00000+0  95092-4 0  9995
2 68134  50.0093 333.7419 0000629 256.4099 103.6728 13.87190720  2909
GUOWANG GROUP 20 OBJECT*
1 68135U 26047G   26092.56949596  .00000009  00000+0  13110-3 0  9991
2 68135  50.0112 333.7611 0000927 224.2337 135.8486 13.87026021  2916
